start=new Date('2022-11-06T00:00:00.000Z').valueOf();
sats=[{"PERIOD":"95.921","MEAN_MOTION_DOT":"-0.00006336","EPHEMERIS_TYPE":"0","ELEMENT_SET_NO":"999","INCLINATION":"97.6604","DECAY_DATE":null,"NORAD_CAT_ID":"53490","EPOCH":"2022-11-05T18:08:37.161024","SITE":"AFWTR","TLE_LINE1":"1 53490U 22099AB  22309.75598566 -.00006336  00000-0 -48946-3 0  9994","APOAPSIS":"565.198","CLASSIFICATION_TYPE":"U","PERIAPSIS":"561.016","COUNTRY_CODE":"US","REF_FRAME":"TEME","FILE":"3646512","LAUNCH_DATE":"2022-08-12","OBJECT_ID":"2022-099AB","OBJECT_TYPE":"PAYLOAD","SEMIMAJOR_AXIS":"6941.242","CENTER_NAME":"EARTH","MEAN_ANOMALY":"333.9769","RA_OF_ASC_NODE":"69.0339","MEAN_ELEMENT_THEORY":"SGP4","TIME_SYSTEM":"UTC","RCS_SIZE":"LARGE","GP_ID":"217020498","MEAN_MOTION":"15.01229173","MEAN_MOTION_DDOT":"0.0000000000000","REV_AT_EPOCH":"1295","ECCENTRICITY":"0.00030120","OBJECT_NAME":"STARLINK-4387","TLE_LINE2":"2 53490  97.6604  69.0339 0003012  26.1606 333.9769 15.01229173 12950","BSTAR":"-0.00048946000000","ARG_OF_PERICENTER":"26.1606"},{"MEAN_MOTION_DDOT":"0.0000000000000","REV_AT_EPOCH":"1293","ECCENTRICITY":"0.00032790","OBJECT_NAME":"STARLINK-4450","TLE_LINE2":"2 53491  97.6560  68.9030 0003279  34.1604 325.9830 15.01244609 12939","BSTAR":"-0.00025970000000","ARG_OF_PERICENTER":"34.1604","SEMIMAJOR_AXIS":"6941.194","CENTER_NAME":"EARTH","MEAN_ANOMALY":"325.9830","RA_OF_ASC_NODE":"68.9030","MEAN_ELEMENT_THEORY":"SGP4","TIME_SYSTEM":"UTC","RCS_SIZE":"LARGE","MEAN_MOTION":"15.01244609","GP_ID":"217021263","OBJECT_ID":"2022-099AC","OBJECT_TYPE":"PAYLOAD","PERIAPSIS":"560.783","COUNTRY_CODE":"US","REF_FRAME":"TEME","FILE":"3646512","LAUNCH_DATE":"2022-08-12","CLASSIFICATION_TYPE":"U","SITE":"AFWTR","TLE_LINE1":"1 53491U 22099AC  22309.61528201 -.00003392  00000-0 -25970-3 0  9990","APOAPSIS":"565.335","INCLINATION":"97.6560","DECAY_DATE":null,"NORAD_CAT_ID":"53491","EPOCH":"2022-11-05T14:46:00.365664","PERIOD":"95.920","MEAN_MOTION_DOT":"-0.00003392","ELEMENT_SET_NO":"999","EPHEMERIS_TYPE":"0"},{"PERIOD":"95.920","EPHEMERIS_TYPE":"0","ELEMENT_SET_NO":"999","MEAN_MOTION_DOT":"-0.00003266","INCLINATION":"97.6569","EPOCH":"2022-11-05T16:27:40.063104","NORAD_CAT_ID":"53492","DECAY_DATE":null,"APOAPSIS":"565.404","TLE_LINE1":"1 53492U 22099AD  22309.68588036 -.00003266  00000-0 -24988-3 0  9998","SITE":"AFWTR","CLASSIFICATION_TYPE":"U","REF_FRAME":"TEME","COUNTRY_CODE":"US","PERIAPSIS":"560.701","LAUNCH_DATE":"2022-08-12","FILE":"3646512","OBJECT_ID":"2022-099AD","OBJECT_TYPE":"PAYLOAD","RA_OF_ASC_NODE":"68.9689","MEAN_ELEMENT_THEORY":"SGP4","MEAN_ANOMALY":"346.0044","CENTER_NAME":"EARTH","SEMIMAJOR_AXIS":"6941.187","GP_ID":"217021089","MEAN_MOTION":"15.01246822","TIME_SYSTEM":"UTC","RCS_SIZE":"LARGE","ECCENTRICITY":"0.00033880","REV_AT_EPOCH":"1294","MEAN_MOTION_DDOT":"0.0000000000000","ARG_OF_PERICENTER":"14.1274","TLE_LINE2":"2 53492  97.6569  68.9689 0003388  14.1274 346.0044 15.01246822 12942","BSTAR":"-0.00024988000000","OBJECT_NAME":"STARLINK-4451"},{"CLASSIFICATION_TYPE":"U","TLE_LINE1":"1 53493U 22099AE  22309.34519479 -.00001490  00000-0 -11143-3 0  9993","SITE":"AFWTR","APOAPSIS":"565.069","INCLINATION":"97.6558","NORAD_CAT_ID":"53493","DECAY_DATE":null,"EPOCH":"2022-11-05T08:17:04.829856","PERIOD":"95.919","MEAN_MOTION_DOT":"-0.00001490","ELEMENT_SET_NO":"999","EPHEMERIS_TYPE":"0","REV_AT_EPOCH":"1313","MEAN_MOTION_DDOT":"0.0000000000000","ECCENTRICITY":"0.00029880","BSTAR":"-0.00011143000000","TLE_LINE2":"2 53493  97.6558  68.6357 0002988  36.4152 323.7275 15.01265502 13133","OBJECT_NAME":"STARLINK-4361","ARG_OF_PERICENTER":"36.4152","CENTER_NAME":"EARTH","SEMIMAJOR_AXIS":"6941.130","RA_OF_ASC_NODE":"68.6357","MEAN_ELEMENT_THEORY":"SGP4","MEAN_ANOMALY":"323.7275","TIME_SYSTEM":"UTC","RCS_SIZE":"LARGE","MEAN_MOTION":"15.01265502","GP_ID":"216967439","OBJECT_ID":"2022-099AE","OBJECT_TYPE":"PAYLOAD","PERIAPSIS":"560.921","REF_FRAME":"TEME","COUNTRY_CODE":"US","FILE":"3645173","LAUNCH_DATE":"2022-08-12"},{"CLASSIFICATION_TYPE":"U","APOAPSIS":"565.373","TLE_LINE1":"1 53494U 22099AF  22309.35049976 -.00008179  00000-0 -63297-3 0  9993","SITE":"AFWTR","INCLINATION":"97.6579","EPOCH":"2022-11-05T08:24:43.179264","NORAD_CAT_ID":"53494","DECAY_DATE":null,"PERIOD":"95.920","EPHEMERIS_TYPE":"0","ELEMENT_SET_NO":"999","MEAN_MOTION_DOT":"-0.00008179","ECCENTRICITY":"0.00033690","REV_AT_EPOCH":"1313","MEAN_MOTION_DDOT":"0.0000000000000","ARG_OF_PERICENTER":"20.0559","TLE_LINE2":"2 53494  97.6579  68.6437 0003369  20.0559 340.0797 15.01252488 13130","BSTAR":"-0.00063297000000","OBJECT_NAME":"STARLINK-4340","RA_OF_ASC_NODE":"68.6437","MEAN_ELEMENT_THEORY":"SGP4","MEAN_ANOMALY":"340.0797","CENTER_NAME":"EARTH","SEMIMAJOR_AXIS":"6941.170","MEAN_MOTION":"15.01252488","GP_ID":"216967902","TIME_SYSTEM":"UTC","RCS_SIZE":"LARGE","OBJECT_ID":"2022-099AF","OBJECT_TYPE":"PAYLOAD","REF_FRAME":"TEME","COUNTRY_CODE":"US","PERIAPSIS":"560.697","LAUNCH_DATE":"2022-08-12","FILE":"3645173"},{"APOAPSIS":"565.370","TLE_LINE1":"1 53495U 22099AG  22309.34310016 -.00002079  00000-0 -15727-3 0  9997","SITE":"AFWTR","CLASSIFICATION_TYPE":"U","MEAN_MOTION_DOT":"-0.00002079","EPHEMERIS_TYPE":"0","ELEMENT_SET_NO":"999","PERIOD":"95.920","DECAY_DATE":null,"NORAD_CAT_ID":"53495","EPOCH":"2022-11-05T08:14:03.853824","INCLINATION":"97.6570","RCS_SIZE":"LARGE","TIME_SYSTEM":"UTC","GP_ID":"216965696","MEAN_MOTION":"15.01255280","SEMIMAJOR_AXIS":"6941.161","CENTER_NAME":"EARTH","MEAN_ANOMALY":"333.2885","MEAN_ELEMENT_THEORY":"SGP4","RA_OF_ASC_NODE":"68.6346","OBJECT_NAME":"STARLINK-4429","TLE_LINE2":"2 53495  97.6570  68.6346 0003377  26.8514 333.2885 15.01255280 12892","BSTAR":"-0.00015727000000","ARG_OF_PERICENTER":"26.8514","MEAN_MOTION_DDOT":"0.0000000000000","REV_AT_EPOCH":"1289","ECCENTRICITY":"0.00033770","FILE":"3645109","LAUNCH_DATE":"2022-08-12","PERIAPSIS":"560.682","COUNTRY_CODE":"US","REF_FRAME":"TEME","OBJECT_TYPE":"PAYLOAD","OBJECT_ID":"2022-099AG"},{"OBJECT_TYPE":"PAYLOAD","OBJECT_ID":"2022-099AH","LAUNCH_DATE":"2022-08-12","FILE":"3645565","REF_FRAME":"TEME","COUNTRY_CODE":"US","PERIAPSIS":"560.068","ARG_OF_PERICENTER":"97.6989","TLE_LINE2":"2 53496  97.6561  68.6369 0004196  97.6989 262.4711 15.01270331 13133","BSTAR":"0.00087722000000","OBJECT_NAME":"STARLINK-4465","ECCENTRICITY":"0.00041960","REV_AT_EPOCH":"1313","MEAN_MOTION_DDOT":"0.0000000000000","MEAN_MOTION":"15.01270331","GP_ID":"216975860","RCS_SIZE":"LARGE","TIME_SYSTEM":"UTC","MEAN_ELEMENT_THEORY":"SGP4","RA_OF_ASC_NODE":"68.6369","MEAN_ANOMALY":"262.4711","CENTER_NAME":"EARTH","SEMIMAJOR_AXIS":"6941.115","EPOCH":"2022-11-05T08:19:22.717344","NORAD_CAT_ID":"53496","DECAY_DATE":null,"INCLINATION":"97.6561","ELEMENT_SET_NO":"999","EPHEMERIS_TYPE":"0","MEAN_MOTION_DOT":"0.00011231","PERIOD":"95.919","CLASSIFICATION_TYPE":"U","TLE_LINE1":"1 53496U 22099AH  22309.34679071  .00011231  00000-0  87722-3 0  9999","SITE":"AFWTR","APOAPSIS":"565.892"},{"FILE":"3645565","LAUNCH_DATE":"2022-08-12","PERIAPSIS":"560.897","COUNTRY_CODE":"US","REF_FRAME":"TEME","OBJECT_TYPE":"PAYLOAD","OBJECT_ID":"2022-099AJ","TIME_SYSTEM":"UTC","RCS_SIZE":"LARGE","MEAN_MOTION":"15.01254690","GP_ID":"216975354","SEMIMAJOR_AXIS":"6941.163","CENTER_NAME":"EARTH","MEAN_ANOMALY":"329.0899","RA_OF_ASC_NODE":"68.6280","MEAN_ELEMENT_THEORY":"SGP4","OBJECT_NAME":"STARLINK-4453","BSTAR":"-0.00018698000000","TLE_LINE2":"2 53497  97.6540  68.6280 0003070  31.0506 329.0899 15.01254690 13148","ARG_OF_PERICENTER":"31.0506","MEAN_MOTION_DDOT":"0.0000000000000","REV_AT_EPOCH":"1314","ECCENTRICITY":"0.00030700","MEAN_MOTION_DOT":"-0.00002460","ELEMENT_SET_NO":"999","EPHEMERIS_TYPE":"0","PERIOD":"95.920","DECAY_DATE":null,"NORAD_CAT_ID":"53497","EPOCH":"2022-11-05T08:08:44.677536","INCLINATION":"97.6540","SITE":"AFWTR","TLE_LINE1":"1 53497U 22099AJ  22309.33940599 -.00002460  00000-0 -18698-3 0  9997","APOAPSIS":"565.159","CLASSIFICATION_TYPE":"U"},{"ELEMENT_SET_NO":"999","EPHEMERIS_TYPE":"0","MEAN_MOTION_DOT":"-0.00001409","PERIOD":"95.919","EPOCH":"2022-11-05T08:16:43.996224","NORAD_CAT_ID":"53498","DECAY_DATE":null,"INCLINATION":"97.6545","TLE_LINE1":"1 53498U 22099AK  22309.34495366 -.00001409  00000-0 -10513-3 0  9996","SITE":"AFWTR","APOAPSIS":"565.072","CLASSIFICATION_TYPE":"U","LAUNCH_DATE":"2022-08-12","FILE":"3646491","REF_FRAME":"TEME","COUNTRY_CODE":"US","PERIAPSIS":"560.917","OBJECT_TYPE":"PAYLOAD","OBJECT_ID":"2022-099AK","GP_ID":"216995592","MEAN_MOTION":"15.01265480","TIME_SYSTEM":"UTC","RCS_SIZE":"LARGE","MEAN_ELEMENT_THEORY":"SGP4","RA_OF_ASC_NODE":"68.6327","MEAN_ANOMALY":"325.4436","CENTER_NAME":"EARTH","SEMIMAJOR_AXIS":"6941.130","ARG_OF_PERICENTER":"34.6983","TLE_LINE2":"2 53498  97.6545  68.6327 0002993  34.6983 325.4436 15.01265480 13132","BSTAR":"-0.00010513000000","OBJECT_NAME":"STARLINK-4439","ECCENTRICITY":"0.00029930","REV_AT_EPOCH":"1313","MEAN_MOTION_DDOT":"0.0000000000000"},{"OBJECT_TYPE":"PAYLOAD","OBJECT_ID":"2022-099AL","FILE":"3646512","LAUNCH_DATE":"2022-08-12","PERIAPSIS":"561.079","REF_FRAME":"TEME","COUNTRY_CODE":"US","BSTAR":"-0.00026646000000","TLE_LINE2":"2 53499  97.6544  68.8893 0002847  34.6948 325.4461 15.01246107 12931","OBJECT_NAME":"STARLINK-4454","ARG_OF_PERICENTER":"34.6948","REV_AT_EPOCH":"1293","MEAN_MOTION_DDOT":"0.0000000000000","ECCENTRICITY":"0.00028470","RCS_SIZE":"LARGE","TIME_SYSTEM":"UTC","MEAN_MOTION":"15.01246107","GP_ID":"217021264","CENTER_NAME":"EARTH","SEMIMAJOR_AXIS":"6941.190","RA_OF_ASC_NODE":"68.8893","MEAN_ELEMENT_THEORY":"SGP4","MEAN_ANOMALY":"325.4461","NORAD_CAT_ID":"53499","DECAY_DATE":null,"EPOCH":"2022-11-05T14:30:21.445632","INCLINATION":"97.6544","MEAN_MOTION_DOT":"-0.00003479","EPHEMERIS_TYPE":"0","ELEMENT_SET_NO":"999","PERIOD":"95.920","CLASSIFICATION_TYPE":"U","SITE":"AFWTR","TLE_LINE1":"1 53499U 22099AL  22309.60441488 -.00003479  00000-0 -26646-3 0  9995","APOAPSIS":"565.031"}];
